     2.11           N: GPS NAV DATA                         RINEX VERSION / TYPE
teqc  2019Feb25     GPS Operator        20210623 08:33:18UTCPGM / RUN BY / DATE
Linux 2.6.32-573.12.1.x86_64|x86_64|gcc|Linux 64|=+         COMMENT
    4.6566D-09  1.4901D-08 -5.9605D-08 -1.1921D-07          ION ALPHA
    8.1920D+04  9.8304D+04 -6.5536D+04 -5.2429D+05          ION BETA
    2.793967723846D-09 9.769962616701D-15   503808     2163 DELTA-UTC: A0,A1,T,W
                                                            END OF HEADER
 4 21  6 23  8  0  0.0-2.006590366364D-04-1.023181539495D-12 0.000000000000D+00
    1.540000000000D+02 2.250000000000D+00 5.081640242142D-09-1.616999141842D+00
   -1.285225152969D-07 1.269015017897D-03 5.146488547325D-06 5.153715412140D+03
    2.880000000000D+05 3.352761268616D-08-1.820276350274D+00 7.450580596924D-09
    9.600524550440D-01 2.787812500000D+02-2.937155332103D+00-8.168197381064D-09
    1.539349834385D-10 1.000000000000D+00 2.163000000000D+03 0.000000000000D+00
    2.000000000000D+00 0.000000000000D+00-4.190951585770D-09 4.100000000000D+02
    2.808180000000D+05 4.000000000000D+00
17 21  6 23  8  0  0.0 4.628547467291D-04 5.911715561524D-12 0.000000000000D+00
    1.860000000000D+02 5.937500000000D+00 4.488401245642D-09-1.022104789350D+00
    4.637986421585D-07 1.335132156964D-02-6.426125764847D-07 5.153614149094D+03
    2.880000000000D+05-2.235174179077D-07 1.348086030589D+00 1.918524503708D-07
    9.817068507965D-01 4.057812500000D+02-1.564685121107D+00-8.663575158394D-09
   -9.071806448581D-11 1.000000000000D+00 2.163000000000D+03 0.000000000000D+00
    4.000000000000D+00 0.000000000000D+00-1.117587089539D-08 1.860000000000D+02
    2.808180000000D+05 4.000000000000D+00
19 21  6 23  8  0  0.0 1.705251634121D-05 5.002220859751D-12 0.000000000000D+00
    6.400000000000D+01-8.656250000000D+00 4.391968657409D-09 1.419671173586D+00
   -9.313225746155D-07 9.329490829259D-03-1.123175024986D-06 5.153637329102D+03
    2.880000000000D+05 1.210719347000D-07 1.393235336884D+00-9.872019290924D-08
    9.802482966019D-01 4.112500000000D+02 1.866697763317D+00-8.428922527028D-09
   -2.067943280995D-10 1.000000000000D+00 2.163000000000D+03 0.000000000000D+00
    2.000000000000D+00 0.000000000000D+00-1.536682248116D-08 6.400000000000D+01
    2.808180000000D+05 4.000000000000D+00
 3 21  6 23  8  0  0.0-1.999139785767D-04-1.080024958355D-11 0.000000000000D+00
    9.300000000000D+01-3.178125000000D+01 4.010524197288D-09 1.986735452375D+00
   -1.592561602592D-06 3.615073859692D-03 1.152418553829D-05 5.153576742172D+03
    2.880000000000D+05-6.705522537231D-08-2.900827108761D+00-1.862645149231D-09
    9.700225606704D-01 1.600000000000D+02 8.642097676800D-01-7.634246568441D-09
    7.928901699153D-10 1.000000000000D+00 2.163000000000D+03 0.000000000000D+00
    2.800000000000D+00 0.000000000000D+00 1.862645149231D-09 9.300000000000D+01
    2.808180000000D+05 4.000000000000D+00
31 21  6 23  8  0  0.0-1.246538013220D-04-2.160049916711D-12 0.000000000000D+00
    6.800000000000D+01 1.615625000000D+01 4.729125558490D-09 1.885920907719D+00
    1.028180122375D-06 1.003758993465D-02 1.075863838196D-05 5.153555751801D+03
    2.880000000000D+05-1.005828380585D-07-7.813695766649D-01 2.421438694000D-07
    9.558011697552D-01 1.720625000000D+02 2.647414262631D-01-7.923901490874D-09
   -6.778853795042D-10 1.000000000000D+00 2.163000000000D+03 0.000000000000D+00
    2.000000000000D+00 0.000000000000D+00-1.303851604462D-08 6.800000000000D+01
    2.808180000000D+05 4.000000000000D+00
 6 21  6 23  8  0  0.0 3.047566860914D-05 4.888534022029D-12 0.000000000000D+00
    3.200000000000D+01-1.623125000000D+02 3.686939290106D-09-3.045834818400D+00
   -8.363276720047D-06 2.114742761478D-03 7.322058081627D-06 5.153791019440D+03
    2.880000000000D+05 7.450580596924D-08 2.337214636382D+00-9.126961231232D-08
    9.841875780373D-01 2.544062500000D+02-9.681709394058D-01-7.703178011141D-09
   -2.853690296227D-10 1.000000000000D+00 2.163000000000D+03 0.000000000000D+00
    2.000000000000D+00 0.000000000000D+00 4.190951585770D-09 3.200000000000D+01
    2.808180000000D+05 4.000000000000D+00
 9 21  6 23  8  0  0.0-3.524492494762D-04-1.818989403546D-12 0.000000000000D+00
    6.600000000000D+01 5.906250000000D+00 5.278791311418D-09-6.029828601993D-01
    8.195638656616D-08 1.886739861220D-03 5.282461643219D-06 5.153746904373D+03
    2.880000000000D+05-7.450580596924D-09-1.871349730165D+00 1.862645149231D-09
    9.529531242655D-01 2.776562500000D+02 1.828142217941D+00-8.288559537489D-09
    2.178662178596D-10 1.000000000000D+00 2.163000000000D+03 0.000000000000D+00
    2.000000000000D+00 0.000000000000D+00 1.396983861923D-09 6.600000000000D+01
    2.808180000000D+05 4.000000000000D+00
22 21  6 23  8  0  0.0-5.813967436552D-04 9.549694368616D-12 0.000000000000D+00
    8.900000000000D+01-3.737500000000D+01 4.714839249123D-09-2.061047054814D+00
   -1.735985279083D-06 6.995177478530D-03 1.216307282448D-05 5.153806915283D+03
    2.880000000000D+05-7.636845111847D-08-3.001213275894D+00 1.918524503708D-07
    9.356623644474D-01 1.305312500000D+02-9.362603307494D-01-7.958902948826D-09
    7.539599768879D-10 1.000000000000D+00 2.163000000000D+03 0.000000000000D+00
    2.000000000000D+00 0.000000000000D+00-1.769512891769D-08 8.900000000000D+01
    2.808180000000D+05 4.000000000000D+00
12 21  6 23  8  0  0.0-5.884421989322D-05-5.229594535194D-12 0.000000000000D+00
    1.800000000000D+01 1.476250000000D+02 4.073026800772D-09 1.675908638036D+00
    7.422640919685D-06 8.347978699021D-03 8.206814527512D-06 5.153728067398D+03
    2.880000000000D+05-1.844018697739D-07 3.117534661489D-01-1.732259988785D-07
    9.736639510232D-01 2.266562500000D+02 1.223433162685D+00-7.850326997630D-09
    8.286059433349D-11 1.000000000000D+00 2.163000000000D+03 0.000000000000D+00
    2.000000000000D+00 0.000000000000D+00-1.257285475731D-08 1.800000000000D+01
    2.808180000000D+05 4.000000000000D+00
25 21  6 23  8  0  0.0 1.609274186194D-04 6.821210263297D-12 0.000000000000D+00
    5.000000000000D+01 1.376875000000D+02 4.360538776800D-09 1.436598825433D+00
    7.145106792450D-06 9.849403868429D-03 8.670613169670D-06 5.153621829987D+03
    2.880000000000D+05-2.421438694000D-07 2.379713610567D-01 9.313225746155D-08
    9.610383652769D-01 2.135312500000D+02 9.710308199027D-01-8.089622679541D-09
    3.571577341961D-13 1.000000000000D+00 2.163000000000D+03 0.000000000000D+00
    2.000000000000D+00 0.000000000000D+00 5.587935447693D-09 5.000000000000D+01
    2.808180000000D+05 4.000000000000D+00
 1 21  6 23  8  0  0.0 6.498559378088D-04-1.170974428533D-11 0.000000000000D+00
    3.000000000000D+01-1.865312500000D+02 3.589435228671D-09 3.023182803219D+00
   -9.523704648018D-06 1.102596183773D-02 7.893890142441D-06 5.153688714981D+03
    2.880000000000D+05 5.401670932770D-08 2.345463822234D+00-5.215406417847D-08
    9.847453550539D-01 2.376875000000D+02 8.627114572236D-01-7.578887119641D-09
   -2.135803250493D-10 1.000000000000D+00 2.163000000000D+03 0.000000000000D+00
    2.000000000000D+00 0.000000000000D+00 5.122274160385D-09 3.000000000000D+01
    2.808180000000D+05 4.000000000000D+00
21 21  6 23  8  0  0.0 1.268382184207D-04 2.387423592154D-12 0.000000000000D+00
    5.000000000000D+01-1.566562500000D+02 4.331609000330D-09-8.941458728789D-01
   -8.201226592064D-06 2.400861913338D-02 7.532536983490D-06 5.153681589127D+03
    2.880000000000D+05-3.334134817123D-07 2.260993090523D+00 5.587935447693D-08
    9.574787081571D-01 2.365625000000D+02-1.123151880927D+00-8.496782496525D-09
   -3.142988060926D-11 1.000000000000D+00 2.163000000000D+03 0.000000000000D+00
    2.000000000000D+00 0.000000000000D+00-1.024454832077D-08 5.000000000000D+01
    2.808180000000D+05 4.000000000000D+00
32 21  6 23  8  0  0.0 1.739477738738D-05-1.591615728103D-12 0.000000000000D+00
    4.200000000000D+01 8.125000000000D-01 5.213074288326D-09-3.295790117630D-01
    1.639127731323D-07 5.017381394282D-03 5.172565579414D-06 5.153672536850D+03
    2.880000000000D+05-2.421438694000D-08-1.861192937174D+00 6.332993507385D-08
    9.569080750166D-01 2.804062500000D+02-2.360633887728D+00-8.304988793262D-09
    1.607209803882D-10 1.000000000000D+00 2.163000000000D+03 0.000000000000D+00
    2.000000000000D+00 0.000000000000D+00 4.656612873077D-10 4.200000000000D+01
    2.808420000000D+05 4.000000000000D+00
26 21  6 23  8  0  0.0 1.018983311951D-04 4.774847184308D-12 0.000000000000D+00
    3.600000000000D+01 1.475000000000D+02 4.836987194218D-09 7.552151644401D-01
    7.864087820053D-06 5.908289342187D-03 8.299946784973D-06 5.153586708069D+03
    2.880000000000D+05 4.842877388000D-08 1.954360845602D-01 9.126961231232D-08
    9.419578553885D-01 2.059687500000D+02 3.037139398647D-01-8.239271770169D-09
   -8.000333245992D-11 1.000000000000D+00 2.163000000000D+03 0.000000000000D+00
    2.000000000000D+00 0.000000000000D+00 6.984919309616D-09 3.600000000000D+01
    2.812980000000D+05 4.000000000000D+00
 2 21  6 23  8  0  0.0-6.144731305540D-04-2.842170943040D-12 0.000000000000D+00
    8.500000000000D+01-1.656562500000D+02 4.071955327570D-09-2.974115490705D+00
   -8.335337042809D-06 2.018094924279D-02 5.554407835007D-06 5.153704261780D+03
    2.880000000000D+05 2.104789018631D-07 2.261090039567D+00 3.725290298462D-09
    9.633189872682D-01 2.725312500000D+02-1.511671628037D+00-7.617102997200D-09
   -2.307238962907D-10 1.000000000000D+00 2.163000000000D+03 0.000000000000D+00
    2.800000000000D+00 0.000000000000D+00-1.769512891769D-08 8.500000000000D+01
    2.825880000000D+05 4.000000000000D+00
